[{"OBJECT_NAME":"DONGPO 08","OBJECT_ID":"2022-167E","EPOCH":"2026-03-09T22:57:52.742880","MEAN_MOTION":15.31542505,"ECCENTRICITY":0.00092155,"INCLINATION":97.6764,"RA_OF_ASC_NODE":233.3854,"ARG_OF_PERICENTER":153.9158,"MEAN_ANOMALY":206.2548,"EPHEMERIS_TYPE":0,"CLASSIFICATION_TYPE":"U","NORAD_CAT_ID":54686,"ELEMENT_SET_NO":999,"REV_AT_EPOCH":18012,"BSTAR":0.0004734784,"MEAN_MOTION_DOT":0.0001437,"MEAN_MOTION_DDOT":0},{"OBJECT_NAME":"STARLINK-35590","OBJECT_ID":"2025-236Y","EPOCH":"2026-03-09T11:35:14.734752","MEAN_MOTION":15.3021397,"ECCENTRICITY":0.00012865,"INCLINATION":53.159,"RA_OF_ASC_NODE":104.78,"ARG_OF_PERICENTER":78.7866,"MEAN_ANOMALY":281.3279,"EPHEMERIS_TYPE":0,"CLASSIFICATION_TYPE":"U","NORAD_CAT_ID":66108,"ELEMENT_SET_NO":999,"REV_AT_EPOCH":2285,"BSTAR":0.0016388711,"MEAN_MOTION_DOT":0.00048518,"MEAN_MOTION_DDOT":0}]
